CAS-2T & KS-1Q          
1 41847U 16066G   20249.84689716  .00000027  00000-0  14894-4 0  9998
2 41847  98.6467 301.1373 0365407 349.5355   9.8369 14.38088719200975
NAYIF-1 (EO-88)         
1 42017U 17008BX  20249.91031742  .00001450  00000-0  57952-4 0  9996
2 42017  97.3536 316.2813 0007315  49.1793 311.0079 15.26703857197824
MAX VALIER SAT          
1 42778U 17036P   20249.71284045  .00000866  00000-0  39948-4 0  9990
2 42778  97.2979 301.1023 0013957  99.2942 260.9873 15.22746242177941
RADFXSAT (FOX-1B)       
1 43017U 17073E   20249.69702605  .00000355  00000-0  32719-4 0  9994
2 43017  97.7166 158.8257 0257426 148.6077 213.0796 14.79005541151021
FOX-1D (AO-92)          
1 43137U 18004AC  20249.77501352  .00000979  00000-0  42996-4 0  9997
2 43137  97.4403 320.3748 0010465 127.5430 232.6760 15.24261210147284
DIWATA-2B               
1 43678U 18084H   20250.24041488  .00000444  00000-0  49882-4 0  9996
2 43678  97.8931   8.6806 0008479 270.7094  89.3154 14.91651845101064
ES'HAIL 2               
1 43700U 18090A   20250.06646625  .00000137  00000-0  00000+0 0  9996
2 43700   0.0140 125.0964 0002163  67.5038 202.7406  1.00274472  6766
FOX-1CLIFF (AO-95)      
1 43770U 18099N   20249.75835617  .00000394  00000-0  41163-4 0  9992
2 43770  97.7006 319.7181 0013046 291.2519  68.7308 14.95035968 95911
ITASAT 1                
1 43786U 18099AE  20250.13874233  .00000500  00000-0  50499-4 0  9991
2 43786  97.7017 320.5688 0013653 282.0059  77.9631 14.95365941 95999
JY1SAT (JO-97)          
1 43803U 18099AX  20249.74207873  .00000658  00000-0  64460-4 0  9993
2 43803  97.6980 319.9795 0013553 283.7463  76.2250 14.95551892 95939
PSAT2 (NO-104)          
1 44354U 19036R   20248.21868937  .00011416  00000-0  16342-3 0  9991
2 44354  28.5277 222.8370 0358772  73.0552 290.9042 15.04988492 65682
BRICSAT2 (NO-103)       
1 44355U 19036S   20249.56620347  .00020565  00000-0  27777-3 0  9991
2 44355  28.5279 200.5773 0332062 109.2224 254.4601 15.11794351 66030
JAISAT-1                
1 44419U 19038F   20249.98498122  .00000738  00000-0  45491-4 0  9998
2 44419  97.5460 210.6747 0020546 209.4322 150.5753 15.12897265 64777
DUCHIFAT-3              
1 44854U 19089C   20249.95582030  .00000442  00000-0  42102-4 0  9994
2 44854  36.9669 342.5832 0009451 348.3745  11.6779 14.99118978 40389
RS-44 & BREEZE-KM R/B   
1 44909U 19096E   20249.88696179  .00000029  00000-0  68037-4 0  9991
2 44909  82.5204 301.8748 0218020  38.7204 322.9298 12.79707824 32475
ORBITAL FACTORY 2 (OF-2)
1 45113U 19071C   20250.09813676  .00001704  00000-0  63049-4 0  9999
2 45113  51.6444 333.9061 0012879 350.3985   9.6749 15.33618698 33501
HUSKYSAT-1              
1 45119U 19071J   20249.80499410  .00001048  00000-0  42982-4 0  9992
2 45119  51.6436 334.9493 0012084 346.1898  13.8752 15.33812140 33455
